CCSDS_OMM_VERS = 2.0
CREATION_DATE  = 
ORIGINATOR     = 

OBJECT_NAME    = KUIPER-00214
OBJECT_ID      = 2026-030Q
CENTER_NAME    = EARTH
REF_FRAME      = TEME
TIME_SYSTEM    = UTC
MEAN_ELEMENT_THEORY = SGP/SGP4

EPOCH          = 2026-02-22T04:00:01.999584
MEAN_MOTION    = 15.36024826
ECCENTRICITY   = .0001729
INCLINATION    = 51.8849
RA_OF_ASC_NODE = 293.9063
ARG_OF_PERICENTER = 142.7075
MEAN_ANOMALY   = 37.2203

EPHEMERIS_TYPE = 0
CLASSIFICATION_TYPE = U
NORAD_CAT_ID   = 67778
ELEMENT_SET_NO = 999
REV_AT_EPOCH   = 251
BSTAR          = .15868E-2
MEAN_MOTION_DOT = .56564E-3
MEAN_MOTION_DDOT = 0

CCSDS_OMM_VERS = 2.0
CREATION_DATE  = 
ORIGINATOR     = 

OBJECT_NAME    = KUIPER-00215
OBJECT_ID      = 2026-030R
CENTER_NAME    = EARTH
REF_FRAME      = TEME
TIME_SYSTEM    = UTC
MEAN_ELEMENT_THEORY = SGP/SGP4

EPOCH          = 2026-02-22T04:00:01.999584
MEAN_MOTION    = 15.33807847
ECCENTRICITY   = .0010067
INCLINATION    = 51.8837
RA_OF_ASC_NODE = 294.0640
ARG_OF_PERICENTER = 13.5029
MEAN_ANOMALY   = 89.9362

EPHEMERIS_TYPE = 0
CLASSIFICATION_TYPE = U
NORAD_CAT_ID   = 67779
ELEMENT_SET_NO = 999
REV_AT_EPOCH   = 130
BSTAR          = .15598E-2
MEAN_MOTION_DOT = .51826E-3
MEAN_MOTION_DDOT = 0

CCSDS_OMM_VERS = 2.0
CREATION_DATE  = 
ORIGINATOR     = 

OBJECT_NAME    = KUIPER-00218
OBJECT_ID      = 2026-030S
CENTER_NAME    = EARTH
REF_FRAME      = TEME
TIME_SYSTEM    = UTC
MEAN_ELEMENT_THEORY = SGP/SGP4

EPOCH          = 2026-02-22T04:00:01.999584
MEAN_MOTION    = 15.34508956
ECCENTRICITY   = .000632
INCLINATION    = 51.8833
RA_OF_ASC_NODE = 294.0157
ARG_OF_PERICENTER = 10.3675
MEAN_ANOMALY   = 115.9734

EPHEMERIS_TYPE = 0
CLASSIFICATION_TYPE = U
NORAD_CAT_ID   = 67780
ELEMENT_SET_NO = 999
REV_AT_EPOCH   = 148
BSTAR          = .15352E-2
MEAN_MOTION_DOT = .52109E-3
MEAN_MOTION_DDOT = 0

CCSDS_OMM_VERS = 2.0
CREATION_DATE  = 
ORIGINATOR     = 

OBJECT_NAME    = KUIPER-00220
OBJECT_ID      = 2026-030T
CENTER_NAME    = EARTH
REF_FRAME      = TEME
TIME_SYSTEM    = UTC
MEAN_ELEMENT_THEORY = SGP/SGP4

EPOCH          = 2026-02-22T04:00:01.999584
MEAN_MOTION    = 15.34027141
ECCENTRICITY   = .0007976
INCLINATION    = 51.8808
RA_OF_ASC_NODE = 294.0432
ARG_OF_PERICENTER = 11.5887
MEAN_ANOMALY   = 99.7534

EPHEMERIS_TYPE = 0
CLASSIFICATION_TYPE = U
NORAD_CAT_ID   = 67781
ELEMENT_SET_NO = 999
REV_AT_EPOCH   = 223
BSTAR          = .15518E-2
MEAN_MOTION_DOT = .5189E-3
MEAN_MOTION_DDOT = 0

CCSDS_OMM_VERS = 2.0
CREATION_DATE  = 
ORIGINATOR     = 

OBJECT_NAME    = KUIPER-00222
OBJECT_ID      = 2026-030U
CENTER_NAME    = EARTH
REF_FRAME      = TEME
TIME_SYSTEM    = UTC
MEAN_ELEMENT_THEORY = SGP/SGP4

EPOCH          = 2026-02-22T04:00:01.999584
MEAN_MOTION    = 15.32428365
ECCENTRICITY   = .0016914
INCLINATION    = 51.8803
RA_OF_ASC_NODE = 294.1367
ARG_OF_PERICENTER = 17.3316
MEAN_ANOMALY   = 47.3027

EPHEMERIS_TYPE = 0
CLASSIFICATION_TYPE = U
NORAD_CAT_ID   = 67782
ELEMENT_SET_NO = 999
REV_AT_EPOCH   = 256
BSTAR          = .15201E-2
MEAN_MOTION_DOT = .48451E-3
MEAN_MOTION_DDOT = 0

CCSDS_OMM_VERS = 2.0
CREATION_DATE  = 
ORIGINATOR     = 

OBJECT_NAME    = KUIPER-00223
OBJECT_ID      = 2026-030V
CENTER_NAME    = EARTH
REF_FRAME      = TEME
TIME_SYSTEM    = UTC
MEAN_ELEMENT_THEORY = SGP/SGP4

EPOCH          = 2026-02-22T04:00:01.999584
MEAN_MOTION    = 15.33531026
ECCENTRICITY   = .0012104
INCLINATION    = 51.8824
RA_OF_ASC_NODE = 294.0809
ARG_OF_PERICENTER = 13.4944
MEAN_ANOMALY   = 80.7100

EPHEMERIS_TYPE = 0
CLASSIFICATION_TYPE = U
NORAD_CAT_ID   = 67783
ELEMENT_SET_NO = 999
REV_AT_EPOCH   = 238
BSTAR          = .15308E-2
MEAN_MOTION_DOT = .50435E-3
MEAN_MOTION_DDOT = 0

CCSDS_OMM_VERS = 2.0
CREATION_DATE  = 
ORIGINATOR     = 

OBJECT_NAME    = KUIPER-00225
OBJECT_ID      = 2026-030W
CENTER_NAME    = EARTH
REF_FRAME      = TEME
TIME_SYSTEM    = UTC
MEAN_ELEMENT_THEORY = SGP/SGP4

EPOCH          = 2026-02-22T04:00:01.999584
MEAN_MOTION    = 15.35148978
ECCENTRICITY   = .0003603
INCLINATION    = 51.8812
RA_OF_ASC_NODE = 293.9678
ARG_OF_PERICENTER = 2.7853
MEAN_ANOMALY   = 145.8080

EPHEMERIS_TYPE = 0
CLASSIFICATION_TYPE = U
NORAD_CAT_ID   = 67784
ELEMENT_SET_NO = 999
REV_AT_EPOCH   = 163
BSTAR          = .15213E-2
MEAN_MOTION_DOT = .52686E-3
MEAN_MOTION_DDOT = 0

CCSDS_OMM_VERS = 2.0
CREATION_DATE  = 
ORIGINATOR     = 

OBJECT_NAME    = KUIPER-00226
OBJECT_ID      = 2026-030X
CENTER_NAME    = EARTH
REF_FRAME      = TEME
TIME_SYSTEM    = UTC
MEAN_ELEMENT_THEORY = SGP/SGP4

EPOCH          = 2026-02-22T04:00:01.999584
MEAN_MOTION    = 15.31741498
ECCENTRICITY   = .0019861
INCLINATION    = 51.8808
RA_OF_ASC_NODE = 294.1852
ARG_OF_PERICENTER = 25.5644
MEAN_ANOMALY   = 15.5962

EPHEMERIS_TYPE = 0
CLASSIFICATION_TYPE = U
NORAD_CAT_ID   = 67785
ELEMENT_SET_NO = 999
REV_AT_EPOCH   = 130
BSTAR          = .99013E-3
MEAN_MOTION_DOT = .30729E-3
MEAN_MOTION_DDOT = 0

CCSDS_OMM_VERS = 2.0
CREATION_DATE  = 
ORIGINATOR     = 

OBJECT_NAME    = KUIPER-00259
OBJECT_ID      = 2026-030Y
CENTER_NAME    = EARTH
REF_FRAME      = TEME
TIME_SYSTEM    = UTC
MEAN_ELEMENT_THEORY = SGP/SGP4

EPOCH          = 2026-02-22T04:00:01.999584
MEAN_MOTION    = 15.34330718
ECCENTRICITY   = .0007912
INCLINATION    = 51.8809
RA_OF_ASC_NODE = 294.0237
ARG_OF_PERICENTER = 5.0480
MEAN_ANOMALY   = 115.8051

EPHEMERIS_TYPE = 0
CLASSIFICATION_TYPE = U
NORAD_CAT_ID   = 67786
ELEMENT_SET_NO = 999
REV_AT_EPOCH   = 267
BSTAR          = .15183E-2
MEAN_MOTION_DOT = .51249E-3
MEAN_MOTION_DDOT = 0

CCSDS_OMM_VERS = 2.0
CREATION_DATE  = 
ORIGINATOR     = 

OBJECT_NAME    = KUIPER-00260
OBJECT_ID      = 2026-030Z
CENTER_NAME    = EARTH
REF_FRAME      = TEME
TIME_SYSTEM    = UTC
MEAN_ELEMENT_THEORY = SGP/SGP4

EPOCH          = 2026-02-22T04:00:01.999584
MEAN_MOTION    = 15.35745832
ECCENTRICITY   = .0001127
INCLINATION    = 51.8804
RA_OF_ASC_NODE = 293.9268
ARG_OF_PERICENTER = 74.1962
MEAN_ANOMALY   = 94.4402

EPHEMERIS_TYPE = 0
CLASSIFICATION_TYPE = U
NORAD_CAT_ID   = 67787
ELEMENT_SET_NO = 999
REV_AT_EPOCH   = 253
BSTAR          = .15025E-2
MEAN_MOTION_DOT = .53034E-3
MEAN_MOTION_DDOT = 0

CCSDS_OMM_VERS = 2.0
CREATION_DATE  = 
ORIGINATOR     = 

OBJECT_NAME    = KUIPER-00262
OBJECT_ID      = 2026-030AA
CENTER_NAME    = EARTH
REF_FRAME      = TEME
TIME_SYSTEM    = UTC
MEAN_ELEMENT_THEORY = SGP/SGP4

EPOCH          = 2026-02-22T04:00:01.999584
MEAN_MOTION    = 15.35980327
ECCENTRICITY   = .0001627
INCLINATION    = 51.8816
RA_OF_ASC_NODE = 293.9131
ARG_OF_PERICENTER = 112.9687
MEAN_ANOMALY   = 62.8993

EPHEMERIS_TYPE = 0
CLASSIFICATION_TYPE = U
NORAD_CAT_ID   = 67788
ELEMENT_SET_NO = 999
REV_AT_EPOCH   = 130
BSTAR          = .14819E-2
MEAN_MOTION_DOT = .52698E-3
MEAN_MOTION_DDOT = 0

CCSDS_OMM_VERS = 2.0
CREATION_DATE  = 
ORIGINATOR     = 

OBJECT_NAME    = KUIPER-00266
OBJECT_ID      = 2026-030AB
CENTER_NAME    = EARTH
REF_FRAME      = TEME
TIME_SYSTEM    = UTC
MEAN_ELEMENT_THEORY = SGP/SGP4

EPOCH          = 2026-02-22T04:00:01.999584
MEAN_MOTION    = 15.31384762
ECCENTRICITY   = .0022167
INCLINATION    = 51.8805
RA_OF_ASC_NODE = 294.2057
ARG_OF_PERICENTER = 26.0145
MEAN_ANOMALY   = 4.1063

EPHEMERIS_TYPE = 0
CLASSIFICATION_TYPE = U
NORAD_CAT_ID   = 67789
ELEMENT_SET_NO = 999
REV_AT_EPOCH   = 146
BSTAR          = .14711E-2
MEAN_MOTION_DOT = .45483E-3
MEAN_MOTION_DDOT = 0

