KUIPER-00214            
1 67778U 26030Q   26053.16668981  .00056564  00000+0  15868-2 0  9992
2 67778  51.8849 293.9063 0001729 142.7075  37.2203 15.36024826  2511
KUIPER-00215            
1 67779U 26030R   26053.16668981  .00051826  00000+0  15598-2 0  9999
2 67779  51.8837 294.0640 0010067  13.5029  89.9362 15.33807847  1306
KUIPER-00218            
1 67780U 26030S   26053.16668981  .00052109  00000+0  15352-2 0  9994
2 67780  51.8833 294.0157 0006320  10.3675 115.9734 15.34508956  1488
KUIPER-00220            
1 67781U 26030T   26053.16668981  .00051890  00000+0  15518-2 0  9995
2 67781  51.8808 294.0432 0007976  11.5887  99.7534 15.34027141  2236
KUIPER-00222            
1 67782U 26030U   26053.16668981  .00048451  00000+0  15201-2 0  9994
2 67782  51.8803 294.1367 0016914  17.3316  47.3027 15.32428365  2566
KUIPER-00223            
1 67783U 26030V   26053.16668981  .00050435  00000+0  15308-2 0  9998
2 67783  51.8824 294.0809 0012104  13.4944  80.7100 15.33531026  2384
KUIPER-00225            
1 67784U 26030W   26053.16668981  .00052686  00000+0  15213-2 0  9994
2 67784  51.8812 293.9678 0003603   2.7853 145.8080 15.35148978  1637
KUIPER-00226            
1 67785U 26030X   26053.16668981  .00030729  00000+0  99013-3 0  9990
2 67785  51.8808 294.1852 0019861  25.5644  15.5962 15.31741498  1302
KUIPER-00259            
1 67786U 26030Y   26053.16668981  .00051249  00000+0  15183-2 0  9996
2 67786  51.8809 294.0237 0007912   5.0480 115.8051 15.34330718  2671
KUIPER-00260            
1 67787U 26030Z   26053.16668981  .00053034  00000+0  15025-2 0  9996
2 67787  51.8804 293.9268 0001127  74.1962  94.4402 15.35745832  2538
KUIPER-00262            
1 67788U 26030AA  26053.16668981  .00052698  00000+0  14819-2 0  9992
2 67788  51.8816 293.9131 0001627 112.9687  62.8993 15.35980327  1309
KUIPER-00266            
1 67789U 26030AB  26053.16668981  .00045483  00000+0  14711-2 0  9998
2 67789  51.8805 294.2057 0022167  26.0145   4.1063 15.31384762  1466
